KAITUO 1B               
1 40912U 15049P   17322.07704230  .00001886  00000-0  95292-4 0  9997
2 40912  97.4516 327.4838 0016729  32.4068   9.0928 15.18185230119635
TIANWANG 1C (TW-1C)     
1 40926U 15051B   17322.12287883  .00011077  00000-0  23132-3 0  9997
2 40926  97.2130   0.6082 0010292 339.7324  98.0127 15.45629477120679
TIANWANG 1B (TW-1B)     
1 40927U 15051C   17322.10677722  .00010802  00000-0  23463-3 0  9993
2 40927  97.2214   0.5368 0010394 351.2070  64.0406 15.44474852120609
TIANWANG 1A (TW-1A)     
1 40928U 15051D   17322.14794293  .00003807  00000-0  10575-3 0  9998
2 40928  97.2116 355.1778 0012715  12.7444  33.6587 15.37410378120346
LAPAN-A2 (IO-86)        
1 40931U 15052B   17322.18252131  .00000699  00000-0  82714-5 0  9999
2 40931   5.9958 214.6961 0013071 264.4276  95.4527 14.76554413115769
LQSAT                   
1 40958U 15057A   17322.11050979  .00000046  00000-0  15031-4 0  9995
2 40958  97.9646  34.6292 0016887 295.8471  64.1009 14.73000538113771
CHUBUSAT-2              
1 41338U 16012B   17321.09306083  .00000457  00000-0  29113-4 0  9998
2 41338  31.0027 221.0659 0013840 133.8020 226.3761 14.99867846 95960
CHUBUSAT-3              
1 41339U 16012C   17322.13196013  .00000411  00000-0  25362-4 0  9997
2 41339  31.0089 213.3684 0013758 150.9243 209.2171 15.00064189 96100
OUFTI-1                 
1 41458U 16025C   17322.11456978  .00002130  00000-0  11505-3 0  9993
2 41458  98.1681   8.4424 0173565 134.4900 227.0677 15.03930864 85707
E-ST@R-II               
1 41459U 16025D   17322.08759975  .00003165  00000-0  16976-3 0  9999
2 41459  98.1666   8.3249 0173625 135.3116 226.2289 15.03711775 85697
AAUSAT 4                
1 41460U 16025E   17322.11545196  .00003001  00000-0  16007-3 0  9997
2 41460  98.1622   8.5778 0166243 132.4071 229.1376 15.04876635 85738
NUSAT 1 (LO-87)         
1 41557U 16033B   17322.10733860  .00002731  00000-0  10342-3 0  9994
2 41557  97.4539  41.5930 0014106 177.4079 182.7236 15.27708217 81929
BEESAT-4                
1 41619U 16040W   17321.86788279  .00002865  00000-0  13053-3 0  9997
2 41619  97.4452  22.6757 0010349 247.5285 112.4855 15.21444106 65952
PRATHAM                 
1 41783U 16059A   17322.12964756  .00000139  00000-0  36355-4 0  9998
2 41783  98.1488  21.7581 0034384  39.9558 320.4164 14.62879612 61102
ALSAT 1N                
1 41789U 16059G   17322.12710506  .00000131  00000-0  34043-4 0  9990
2 41789  98.1489  22.5564 0029234  33.9143 326.3937 14.64100675 61135
NAYIF-1 (EO-88)         
1 42017U 17008BX  17322.14741905  .00002926  00000-0  12477-3 0  9999
2 42017  97.4778  23.2126 0007693  51.5177 308.6749 15.23716954 41921
LILACSAT-1              
1 42725U 98067ME  17322.16513439  .00024364  00000-0  29425-3 0  9991
2 42725  51.6390 346.9753 0004717 148.3952 211.7325 15.60582805 27486
MAX VALIER SAT          
1 42778U 17036P   17322.14215203  .00001901  00000-0  89094-4 0  9993
2 42778  97.4338  20.0561 0014467  89.6016 270.6877 15.20823896 22421
